CompanyName,TelNum,Address,Latitude,Longitude
3R Quest Sdn Bhd,06-6853123/3133,"Lot 1620, Jalan Perusahaan 2/1, Kawasan Perindustrian Chembong, 71300 Rembau, Negeri Sembilan",2.6102708,102.0726164
5E Resources Sdn Bhd,07-2521388,Plot 738 Jalan Platinum Utama Zon 12B Kwsn Perindustrian Pasir Gudang Johor.,1.4671496,103.887129
AB Green Solutions Sdn Bhd,013-7178185,"Lot B-7, Kompleks Kilang SME Bank Kota Bharu, Kawasan Perindustrian Pengkalan Chepa Fasa 1, Jalan Padang Tembak 16100, Kota Bharu, Kelantan",6.139171,102.297627
AEON Bandaraya Melaka (Cawangan Meriahtek),017-4572526,"2, Jalan Lagenda Taman 1 Lagenda, 75400 Melaka",2.2119186,102.2475888
Aer Worldwide Sdn. Bhd,04-6266094,"No 11, Solok Beringin, Jalan Permatang Damar Laut, 11900 Bayan Lepas, Pulau Pinang",5.2832336,100.272851
Akshani Sdn. Bhd,019-4460 077 / 04-4483 112,"No. 6, Jalan Makmur 1, Bukit Makmur Industrial Park, 08000 Sungai Petani, Kedah",5.6929167,100.5128276
Alif Marketing,03-77854418,"No 44, Jalan 10/152, Taman Perindustrian OUG Jalan Puchong Bt. 6 58200 Kuala Lumpur",3.0685522,101.6612667
AM Metal Industries,014-3242642,"No. 9-11, Jalan 5, Kawasan Perindustrian Wawasan, 86000 Kluang, Johor",2.0354655,103.3013836
Apple PC Enterprise,07-5575688,"No. 19, Jalan Emas Putih, Taman Sri Putri, 81300 Skudai, Johor",1.5446467,103.655552
Asajaya Recycling Centre Kajang (Tzu Chi),03-6256 3800,"2 Jalan Asa 11 Taman Asajaya, 43000 Kajang, Selangor",2.9870484,101.8176587
Awie Metal Sdn Bhd,013-983 4313,"Lot 11815 Kawasan Perindustrian Batu 7, 23000 Dungun, Terengganu",4.7121719,103.3980067
Banting Recycling Centre (Tzu Chi),03-3382 0066 / 0660,"Lot 624 Jalan Teluk Bunut, 42700 Banting, Selangor",2.8262538,101.5139249
Bayu Quantum Sdn Bhd,017-338 5340,"No.33, Jalan 5 Klang Central Industrial Park, Off Lorong Sg Puloh, Batu 5 Jalan Kapar, 41400 Klang, Selangor",3.0511183,101.4476879
Bayu Tinggi Recycling Centre (Tzu Chi),03-62563800,"49, Lorong Sentosa 4A, Taman Bayu Tinggi, 41200 Klang, Selangor",3.0123576,101.4303207
Broga Recycling Centre (Tzu Chi),03-62563800,"6, Kampung Baru Tarun Broga, 43500 Semenyih, Selangor",2.9367511,101.9098535
Bukit Anggerik Recycling Centre (Tzu Chi),03-62563800,"Persatuan Kebajikan Cheras, KM10 KL, No. 69, Jalan 34/154, Taman Dahlia Cheras, 56000 Kuala Lumpur",3.0575861,101.7478977
Bukit Beruntung Recycling Centre (Tzu Chi),03-6256 3800,"15, Jalan Jejarum 1D Bukit Beruntung, 48000 Rawang, Selangor",3.4096545,101.5629745
Bukit Jelutong Recycling Centre (Tzu Chi),03-62563800,"Jalan Pelapik U8/46, Bukit Jelutong, 40150 Shah Alam, Selangor (opposite Ulam Desa Restaurant)",3.1150499,101.5257437
Bukit Kuchai Recycling Centre (Tzu Chi),03-6256 3800,"Pusat Kitar Semula Bukit Kuchai, Jalan 26 Taman Bukit Kuchai, 47100 Puchong",3.0570133,101.635685
Bukit Sentosa Recycling Centre (Tzu Chi),03-62563800,"No.19 Jalan Orkid 2A BS1, Bukit Sentosa, 48300 Rawang, Selangor",3.4016083,101.5578734
CB Amman Trading,03-42883466,"No. 16C, Jalan 21, Off Jalan Kuari, Cheras Baru, 56100 Kuala Lumpur",3.1064958,101.7429745
Cempaka Recycling Centre (Tzu Chi),03-6256 3800,"PJU1/27, 47301 Petaling Jaya, Selangor",3.1169705,101.597536
Cenviro Recycling & Recovery Sdn Bhd,06-666 2000,"Ladang Tanah Merah A3 Division, 71960 Bukit Pelandok Port Dickson, Negeri Sembilan",2.65855,101.8012693
Cheras Batu 9 Recycling Centre (Tzu Chi),03-62563800,"Kampung Pasar Bt. 9, Jalan 8, 43200 Cheras, Selangor",3.0593257,101.7603874
Cheras Utama Recycling Centre (Tzu Chi),03-62563800,"Pasar Cheras Utama, Jalan 9/95B, Taman Cheras Utama, 56100 Kuala Lumpur",3.1031645,101.75065
Chew Ying Meng Trading,019-2049809,"3368-7, Jalan Raya Empat, Taman Raya, 27000 Jerantut, Pahang",3.9419733,102.3626603
Comet Recycle Sdn Bhd,04-5050 803,"Plot 224, Jalan Perindustrian Bukit Minyak 7, Bukit Minyak Industrial Park, 14000 Bukit Mertajam, Pulau Pinang",5.3099209,100.4524272
Cycle Trend Industries Sdn Bhd,04-5078089 / 012-5059994,"1001, Jalan Perindustrian Bukit Minyak, Kawasan Perindustrian Bukit Minyak, 14100 Simpang Ampat, SPT, Penang.",5.2908395,100.4542142
Damansara 5 Recycling Centre (Tzu Chi),03-62563800,"SH- 7, Ground Floor, Commercial Centre Bandar Sri Damansara 13C, Jalan Tembaga SD 5/2A, 52200 Kuala Lumpur",3.2018194,101.6190742
Data Xpert Sdn Bhd,04-2409728,"72-1-69, Jalan Mahsuri, Arena Curve, 11950 Bayan Lepas, Pulau Pinang",5.3258637,100.2806816
Desa Aman Recycling Centre (Tzu Chi),03-62563800,"206, Jalan D/A 3, Desa Aman, Batu 11, 47000 Sungai Buloh, Selangor",3.2089276,101.5987779
Desa Park City Reycling Centre (Tzu Chi),03-6256 3800,"Lot 62181 Persiaran Residen Desa Park City, 52200 Kuala Lumpur ( near to The Breezeway Southlake Safa residential area)",3.1869971,101.6279324
Dewan Bandaraya Kota Kinabalu,088-244000,"Dewan Bandaraya Kota Kinabalu, Pusat Lestari Kota Kinabalu, Dewan Masyarakat Kota Kinabalu, Jalan Dewan Kota Kinabalu, 88675 Kota Kinabalu, Sabah",5.9846951,116.0784519
Dragon Alliance Sdn Bhd,04-5981 600,"No 27, Lorong Industri II, Kawasan Industri Bukit Panchor, 14300 Nibong Tebal, Pulau Pinang",5.1738717,100.4990313
E Plus Resources,012-7381633,"Lot 10480 B1 & B2, Jalan Kebun Nenas, 41200 Klang, Selangor",2.993835,101.4708093
Ecocytion (M) Sdn Bhd,016-3817759 / 012-7187759,"No 145, Jalan 14, Perindustrian Ehsan Jaya, Kepong, 52100 KL",3.2113171,101.6202129
Edsha Solutions Sdn Bhd,05-365 4388,"No. 3 Jalan Johan 1/3, Kawasan Perindustrian Pengkalan 2, 31550 Pusing, Perak",4.5119556,101.0342768
Ega Recycling Sdn Bhd,06-7998229,"Factory Lot 29 Jalan Permata 1/1, Arab Malaysian Industrial Park, 71800 Nilai, Negeri Sembilan",2.8636781,101.8131205
Embatech Sdn Bhd,04 626 5523 / 6262 453,"No. 1, Lintang Beringin 8 Diamond Valley Industrial Park 2, Off Jalan Permatang Damar Laut, 11960 Bayan Lepas, Pulau Pinang",5.28184,100.26968
ERTH,014-2211446,"G-3A, Ground Floor, Kanvas Retail & Prima 15 Jalan Teknokrat 6 63000 Cyberjaya",2.9136154,101.6552801
Esram Metals (M) Sdn Bhd,03-8725 6680,"Lot 3294, No 1-36, Jalan Perindustrian Mahkota 11a, Kawasan Perindustrian Mahkota, 43700 Beranang Selangor",2.8915504,101.8565562
Estalco Sdn Bhd,07-2552888,"Plo 616, Jalan Miel 1 Off, Jalan Keluli 9, Kawasan Perindustrian Miel 4, 81700 Pasir Gudang Johor.",1.4686602,103.9216208
Eye 1 Recycle (Miri) Sdn Bhd,019-9977328,"Lot 2511, Jalan Pujut 1B, Pujut Corner, 98000 Miri, Sarawak",4.4217705,114.0201672
Fasiliti Inovasi Kitar Semula - FIKS (Cawangan AFES),013-4642619,"No. 1, Fasiliti Inovasi Kitar Semula (FIKS), Jalan P5B, Presint 5, 62200 Putrajaya (Bersebelahan dengan IWK STP 2 (Indah Water Konsortium",2.8867169,101.6867779
Foo Sun Trading Sdn Bhd,06-7636163 / 5163,"No. 7, Jalan Bunga Raya 4, Kawasan Perindustrian Taman Tasik Jaya, 70450 Seremban, Negeri Sembilan",2.7184183,102.002855
Gabungan Penaga (M) Sdn Bhd,06-384 8211 / 012-275 3384,"Lot A-11, Kawasan Perindustrian Miel Masjid Tanah, Fasa 1, Pengkalan Balak, 78300 Masjid Tanah, Melaka",2.33494,102.07955
Gantang Tinggi Sdn Bhd Plo 15,011-2762 5772,"PLO 15, PTD 10068, Kawasan Perindustrian 11, 85000 Segamat, Johor",2.4922343,102.8651458
Gantang Tinggi Sdn Bhd Plo 44,016-3966 989,"PLO 44, PTD 10035, Kawasan Perindustrian 2, Jalan Labis, 85000 Segamat, Johor",2.4648963,102.9147835
Golden Star Industries Sdn Bhd,016-2991398,"9709-D, Jalan PBR 9, Kawasan Perindustrian Bukit Rambai Fasa 2, 75250 Melaka",2.2687931,102.1766653
Esram Metals (M) Sdn Bhd,03-8725 6680,"Lot 3294, No 1-36, Jalan Perindustrian Mahkota 11a, Kawasan Perindustrian Mahkota, 43700 Beranang Selangor",2.8915504,101.8565562
Estalco Sdn Bhd,07-2552888,"Plo 616, Jalan Miel 1 Off, Jalan Keluli 9, Kawasan Perindustrian Miel 4, 81700 Pasir Gudang Johor.",1.4686602,103.9216208
Eye 1 Recycle (Miri) Sdn Bhd,019-9977328,"Lot 2511, Jalan Pujut 1B, Pujut Corner, 98000 Miri, Sarawak",4.4217705,114.0201672
Fasiliti Inovasi Kitar Semula - FIKS (Cawangan AFES),013-4642619,"No. 1, Fasiliti Inovasi Kitar Semula (FIKS), Jalan P5B, Presint 5, 62200 Putrajaya (Bersebelahan dengan IWK STP 2 (Indah Water Konsortium",2.8867169,101.6867779
Foo Sun Trading Sdn Bhd,06-7636163 / 5163,"No. 7, Jalan Bunga Raya 4, Kawasan Perindustrian Taman Tasik Jaya, 70450 Seremban, Negeri Sembilan",2.7184183,102.002855
Gabungan Penaga (M) Sdn Bhd,06-384 8211 / 012-275 3384,"Lot A-11, Kawasan Perindustrian Miel Masjid Tanah, Fasa 1, Pengkalan Balak, 78300 Masjid Tanah, Melaka",2.33494,102.07955
Gantang Tinggi Sdn Bhd Plo 15,011-2762 5772,"PLO 15, PTD 10068, Kawasan Perindustrian 11, 85000 Segamat, Johor",2.4922343,102.8651458
Gantang Tinggi Sdn Bhd Plo 44,011-2762 5772,"PLO 44, PTD 10035, Kawasan Perindustrian 2, Jalan Labis, 85000 Segamat, Johor",2.4648963,102.9147835
Golden Star Industries Sdn Bhd,016-3966 989,"9709-D, Jalan PBR 9, Kawasan Perindustrian Bukit Rambai Fasa 2, 75250 Melaka",2.2687931,102.1766653
Grand Senheng 1 Lagenda,016-2991398,"Lot No. 2, Jalan Lagenda 3, Taman 1 Lagenda, 75400 Melaka.",2.2111427,102.2471145
Grand Senheng Ipoh 40-42,016-2991398,"40 – 42, Lebuh Medan Ipoh, Bandar Baru Medan Ipoh ,31400 Ipoh, Perak",4.6146339,101.1201972
Grand Senheng Kajang,016-2991398,"No 62-64, Jalan Raja Haroun, Bandar Kajang, 43000 Kajang, Selangor Darul Ehsan",2.9921807,101.7912647
Grand Senheng Kemaman,016-2991398,"PT 11268 (G)- PT 11269 (G) ,Tingkat 1 & 2, Taman Cukai Utama , Jalan Kubang Kurus ,24000 Kemaman, Terengganu",4.2215868,103.418659
Grand Senheng Kluang,016-2991398,"No.15 Ground Floor &First Floor, Jalan Ciku 68000 Kluang, Johor",2.0384541,103.3194136
Grand Senheng Muar,016-2991398,"31-3G & 31-4G, Jalan Ali,84000 Muar, Johor",2.0465854,102.5688729
Grand Senheng Pandan Jaya 42-44,016-2991398,"42B & 44B, Jalan Pandan 3/2, Pandan Jaya, 55100 Kuala Lumpur",3.133492,101.7402878
Grand Senheng Pasir Puteh,016-2991398,"No. 505 – 507, Jalan Pasir Puteh, Pasir Puteh, 31650 Ipoh, Perak",4.5789836,101.081557
Grand Senheng Pendamaran 89-91-93,016-2991398,"89, 91 & 93, Jln. Batu Unjur Taman Chi Liung, Pandamaran 42000 Port Klang, Selangor",3.015433,101.4280613
Grand Senheng Rawang,016-2991398,"No. 53, 55 & 57, Jalan Bandar Rawang 2 48000 Rawang Selangor Darul Ehsan",3.3241475,101.5775528
Grand Senheng Semenyih,016-2991398,"2G, 2A-G Jalan TPS 1/2 Taman Pelangi Semenyih 43500 Semenyih, Selangor",2.9316115,101.8552218
Grand Senheng Senawang,016-2991398,"No.93,94,95 (Ground/1st Floor) ,Jalan BPS 5, Bandar Prima Senawang 70450 Seremban, N.S",2.7024617,101.9798969
Grand Senheng Setia Alam,016-2991398,"LOT 6-1, 6-2, 7, 7-1,7-2, 8, 8-1 No. 1 Jalan Setia Prima WU13/W Seksyen U13, Setia Alam 40170 Shah Alam, Selangor",3.0938028,101.4449817
Grand Senheng Shah Alam 105,016-2991398,"No. 105, Jalan Pelabur B 23/B, Section 23, 40300 Shah Alam, Selangor",3.047954,101.5278269
Grand Senheng Sitiawan,016-2991398,"1D, Ground Floor ,Taman Sitiawan Maju II Jalan Lumut, 32000 Sitiwan, Perak",4.2158308,100.6931231
Grand Senheng Taiping,016-2991398,"No. 1-3, Jalan Medan Taiping, Medan Taiping, 34000 Taiping, Negeri Perak",4.8493199,100.7312924
"Grand Senheng Tun Aminah, Skudai",016-2991398,"No. 47, 47A, 47B, Jalan Pendekar 15 ,Taman Ungku Tun Aminah ,81300 Skudai, Johor",1.5157564,103.654484
Green Earth Metal Industrial Sdn Bhd,"08-2616179, 012-8087179","Lot 2501, Block 226, 5th Mile, Jalan kong Ping, 93350 Kuching Sarawak",1.4988558,110.3225563
Green Resource Recovery Sdn Bhd,04-9161404,"Plot 19, Darul Aman Industrial Estate Bandar Darul Aman, 06000 Jitra Kedah",6.2360818,100.4242039
Happy Garden Recycling Centre (Tzu Chi),03-6256 3800,"Jalan Riang Happy Garden Off Jalan Klang Lama, 58200 Kuala Lumpur",3.0833707,101.6835915
HDU Dgreat Sdn Bhd,09-2960576,"Lot 11/129, Kawasan Perindustrian Gebeng, Fasa 2, 26080 Kuantan Pahang",3.9674252,103.4237244
Hom Kim Recycling Co. Sdn. Bhd,08-2266 928,"Lot 1551, Block 71, KCLD, Kang Cheng Light Industrial Estate, 10th Mile, Jalan Kuap Off Jalan Penrissen, 93250, Kuching Sarawak",1.4739225,110.3293087
Hong Wei Carry Services Sdn Bhd,016-555 2402,"No. 18, Jalan Perusahaan 1, Kawasan Perindustrian Parit Hulu, Jeram Bakri, 84200 Muar, Johor",2.0615089,102.6353688
iCYCLE Malaysia Sdn Bhd,03-82111985,"Sungai Chua Warehouse No. 12, Jalan SC 2, Pusat Perindustrian Sungai Chua, 43000 Kajang, Selangor",2.9844514,101.7714545
Infinity Recovery Sdn Bhd,07-3866080,"No 2, Jalan Cenderai 24, Taman Perindustrian Kota Puteri, 81750 Masai, Johor",1.4963558,103.8510257
Innovasi Laman Sdn Bhd,012-4049 941 / 04-4026 173,"No. 84, Jalan Waja 3, Taman Industri Waja, 03000 Kulim, Kedah",5.4236572,100.5654824
Iyan Trading Sdn Bhd,012-4750210,"Lot 5, Kawasan Perindustrian Mukim Jejawi, 02600 Arau, Perlis.",6.44057,100.23034
Jaring Metal Industries Sdn Bhd,03-57408823,"No 7, Jalan Kayu Sg. Ara 32/37, Taman Berjaya, Seksyen. 32, 40460 Shah Alam Selangor",2.9851809,101.5120191
Jenjarom Recycling Centre (Tzu Chi),03-3382 0066 / 0660,"Dewan Orang Ramai Jenjarom, 42600 Kuala Langat, Selangor",2.8762894,101.49828
Jinjang Recycling Centre (Tzu Chi),03-6256 3800,"2376/7 Jalan Jinjang Permai 8 Jinjang Utara, 52000 Kuala Lumpur",3.2168241,101.6627908
Kampung Baru Ampang Recycling Centre (Tzu Chi),03-62563800,"59, Jalan 14E, Kampung Baru Ampang, 68000 Ampang, Selangor",3.1363211,101.7585931
Kampung Baru Serdang Recycling Centre (Tzu Chi),03-62563800,"1928, Jalan SK 13/5, 43300 Seri Kembangan, Selangor",3.026955,101.698907
Kampung Semenyih Recycling Centre (Tzu Chi),03-62563800,"Jalan 14, Kampung Bahru Semenyih, 43500 Semenyih, Selangor",2.9512434,101.8413138
Kapar Recycling Centre (Tzu Chi),03-3382 0066 / 0660,"No 47, Jalan Bukit Kapar, 42200 Kapar, Selangor",3.1410063,101.3805764
Kayu Ara Recycling Centre (Tzu Chi),03-6256 3800,"39, Jalan PJU6A/3 Kayu Ara Business Park 47400 Petaling Jaya Selangor",3.1335234,101.6149434
KHK Recycle Sdn Bhd,04-331 2024,"No. 49, Lorong Mak Mandin 5/3, Kawasan Perindustrian Mak Mandin, 13400 Butterworth, Pulau Pinang",5.4183863,100.3899507
Kitar Teliti Sdn Bhd,011-2762 5772,"PLO 2, PTD 10038, Kawasan Perindustrian 2, Jalan Labis, 85000 Segamat Johor",2.4648963,102.9147835
Kota Kemuning Recycling Centre (Tzu Chi),03-6256 3800,"Jalan Anggerik Vanilla 31/95, Kota Kemuning, 40460 Shah Alam, Selangor",3.0073144,101.5356993
Kt Wan Recycle,012-9542 066,"No-A35, Kawasan Perindustrian Chendering, 21080 Kuala Terengganu, Terengganu",5.271116,103.1640419
Laksana Cergas Sdn Bhd,017-9591 980,"Lot 3143, Kawasan Perindustrian Pengkalan Chepa 2, 16100 Kota Bharu, Kelantan",6.10767,102.2664419
Lembaga Perbandaran Kudat,088-624600,"Bangunan Dewan Tun Mustapha, Peti Surat 201, 89058 Kudat, Sabah",6.8831917,116.8496877
Lotus’s Cheng (Cawangan Meriahtek),017-4572527,"No. 1, Jalan Inang 3, Taman Paya Rumput, 75460 Melaka",2.2813286,102.2162528
LSPCM (Melaka) Sdn Bhd,06-3514 711,"Lot 152-160, Jalan PBR 18, Kawasan Perindustrian Bukit Rambai, 75250, Melaka",2.2694436,102.1813643
Majlis Bandaraya Ipoh (Parlimen Batu Gajah),012-5169009,"Dewan Orang Ramai Jelapang, Jalan Besar, Jelapang, 30020 Ipoh, Perak",4.6380029,101.0639191
Majlis Bandaraya Ipoh (Parlimen Gopeng),012-5169009,"Tapak Pasar Malam Rapat Setia, Jalan Teoh Kim Swee, Taman Rapat Setia Baru, 31350 Ipoh, Perak",4.5726108,101.1261787
Majlis Bandaraya Ipoh (Parlimen Ipoh Barat),012-5169009,"Kawasan Rukun Tetangga Bercham, Persiaran Bercham Selatan 10, Taman Desa Kenchana, 31400 Ipoh, Perak",4.6324675,101.1273204
Majlis Bandaraya Ipoh (Parlimen Ipoh Timur),012-5169009,"Dewan Komuniti Pasir Pinji, Jalan Sultan, Jalan Pasir Pinji, 31650 Ipoh, Perak",4.5804858,101.0849951
Majlis Bandaraya Ipoh (Parlimen Tambun),012-5169009,"Rukun Tetangga Padang Lintau, Kg. Tengku Husin, 30020 Ipoh, Perak",4.6116632,101.0628101
Majlis Daerah Beaufort,087-211550,"Peti Surat No. 181, 89808 Beaufort Sabah",5.345118,115.745112
Majlis Daerah Beluran,089-511272,"Peti Surat 20, 90107 Beluran, Sabah",5.8961356,117.5571852
Majlis Daerah Keningau,087-341180/152/188,"Peti Surat 181, 89008 Keningau, Sabah",5.3374039,116.1566801
Majlis Daerah Papar,088-911094,"Peti Surat 177, 89608 Papar, Sabah",5.734628,115.9318508
Majlis Daerah Sipitang,087-821701,"Peti Surat 28, 89857 Sipitang, Sabah",5.07919,115.550825
Majlis Perbandaran Manjung,05-6898800 / 05-6917434,"Pejabat Cawangan Zon Setiawan, Kampung Serdang, 32000 Setiawan, Perak",4.2181798,100.6984122
Maju E-waste Sdn Bhd,"03-80842555, 019-3121777","No. 79, Jalan Bandar Rawang 3, 48000 Rawang, Selangor",3.3238087,101.5789658
Maluri Recycling Centre (Tzu Chi),03-62563800,"Off Jalan Bukit Maluri, 52100 Kuala Lumpur",3.2014743,101.6281188
Mayang Jaya Recycling Centre (Tzu Chi),03-62563800,"Jalan SS26/12, Taman Mayang Jaya, 47301 Petaling Jaya, Selangor (Mayang Jaya Residents Association and Lily Apartment)",3.116369,101.6042404
MD Scrap Sdn Bhd,03-91747226,"11, Jalan 3/118C, Desa Tun Razak, 56000 Kuala Lumpur",3.079827,101.727058
MEP Enviro Technology,04-5059557/9554,"Plot 167A (Lot 20433), Jalan Perindustrian Bukit Minyak, Kawasan Perindustrian Bukit Minyak 13, 14100 S.P.T Penang.",5.2981654,100.4502319
MEP Enviro Technology Penang,04-5088557,"Plot 71 & 72, Lorong Perindustrian Bukit Minyak 14, Kawasan Perindustrian Bukit Minyak, 14100 S.P.T., Pulau Pinang",5.3036529,100.4489454
MEP Enviro Technology Sdn Bhd,012-4528977,"111, Jalan Murni 5, Taman Perindustrian Murni Senai, 81400 Senai, Johor",1.6175633,103.6698251
Meriahtek (M) Sdn Bhd,06-3365211,"No. 1, Jln TTC 30, Taman Teknologi Cheng, 75260 Melaka.",2.2654131,102.2326238
Metro Perdana Recycling Centre (Tzu Chi),03-62563800,"47-49, Jalan Metro Perdana Barat 11, Kepong, 52100 Kuala Lumpur",3.2176516,101.6393127
Miharja Recycling Centre (Tzu Chi),03-62563800,"29, Jalan Lombong, Bt 2 1/2, Jalan Cheras, 56100 Kuala Lumpur",3.0925056,101.7398849
MM Century Sdn Bhd,017-397 7597,"PMT 1132, Jalan Perindustrian Bukit Minyak 7, Taman Perindustrian Bukit Minyak, 14100 Simpang Ampat, Pulau Pinang",5.3042104,100.458386
MMP Resources Sdn Bhd,04-3999604 / 04-3984604,"2009, Jalan Perusahaan, 13600 Perai, Penang.",5.3634648,100.3998104
Paka Recycle Sdn Bhd,012-2995353,"Lot. 7, Lot No 65402, Batu 6, Jalan Bukit Kemuning, Sek 34, 40470 Shah Alam, Selangor",3.0096829,101.5111423
Pandan Indah KL Recycling Centre (Tzu Chi),06-9544375,"Jalan Pandan Indah 1/16, Pandan Indah, 55100 Kuala Lumpur",3.1303513,101.7502494
Puchong Hartamas Recycling Centre (Tzu Chi),03-62563800,"Jalan Bakawali, Taman Puchong Hartamas, 47100 Puchong, Selangor",3.0045552,101.622868
Puchong Puteri Recycling Centre (Tzu Chi),03-62563800,"Pusat Kitar Semula Zon 16 Bandar Puteri, Jalan Puteri 7/8, Bandar Puteri, 47100 Puchong, Selangor",3.0255856,101.6230277
Pulau Ketam Recycling Centre (Tzu Chi),03-3382 0066 / 0660,"467, Jalan Telikom Pulau Ketam, 42940 Pelabuhan Klang, Selangor",2.9749126,101.472702
"Pusat Kitar Semula Jalan Bonus, KL (Cawangan Alam Flora Environmental Solution)",012-2543743,"Jalan Bonus 6, KL",3.1547789,101.6973096
Pusat Kitar Semula Presint 11 (Cawangan AFES),03-88877785,Pusat Kejiranan Presint 11,2.962505,101.6660743
Pusat Kitar Semula Presint 14 (Cawangan AFES),03-88877785,Park & Ride Cyberjaya,2.9118617,101.6546082
Pusat Kitar Semula Presint 16 (Cawangan AFES),03-88877785,Pasar Awam Presint 16,2.9333611,101.7080604
Pusat Kitar Semula Presint 18 (Cawangan AFES),03-88877785,"Futsal 1 Malaysia, Presint 18",2.919605,101.6960299
Pusat Kitar Semula Presint 9 (Cawangan AFES),03-88877785,"Pusat Kitar Semula Komuniti, Jalan P9B, 62250 Wilayah Persekutuan Putrajaya",2.939708,101.6719604
Pusat Pengumpulan E-waste Kemaman,09-8597777 / 012-9217562,"Lot G-18, Binjai Souq, 24000 Kemaman, Terengganu",4.227328,103.3627089
Putra Heights Recycling Centre (Tzu Chi),06-9544375,"42 (Ground Floor) Jalan Putra Indah 9/1D, Section 9, Putra Height, 47650 Subang Jaya, Selangor",2.9963783,101.5709113
Recircle Sdn Bhd,012-6028397,"No. 560 A-1, Jalan E3/5, Taman Ehsan Kepong, 52100 Kuala Lumpur",3.2221327,101.6236119
Recovery Initiative Sustainable Eco-Facility (Cawangan AFES),03-2052 8342,"Lot 5, Jalan SBC 10, Taman Seri Batu Caves, 68100 Batu Caves, Selangor",3.230096,101.688057
Residensi Teratai Recycling Centre (Tzu Chi),03-6256 3800,"2 Jalan 6/23F, Taman Teratai Mewah, 53000 Kuala Lumpur",3.2001628,101.7106834
Rezki IT Solutions,017-3471420,"No. 21C, Jalan 5, Medan 120, Bandar Baru Salak Tinggi, 43900 Sepang, Selangor",2.8077871,101.7245492
Saujana Damansara Recycling Centre (Tzu Chi),03-62563800,"PJU 10/10B, Saujana Damansara, 47830 Petaling Jaya, Selangor",3.1982767,101.5895485
Scrap Computer Trading Sdn Bhd,03-55115522,"Lot 8, Jalan Beremban 15/12, Seksyen 15, 40200 Shah Alam Selangor",3.0612241,101.5338525
Sekinchan Recycling Centre (Tzu Chi),03-33820066 / 03-33820660,"Jalan Sekolah, Sekinchan, 45400 Sekinchan, Selangor (behind BHP Petrol Station)",3.5664919,101.0730717
Seng & Kian Enterprise Sdn Bhd,019-660 3754,"PTD 16051, Jalan Teknologi 5, Kawasan Industri Tangkak, 84900 Tangkak, Ledang, Johor,",2.2392755,102.5293335
Senheng Alor Setar,016-2991398,"2&2A, 3&3A, Pekan Simpang Kuala, Off Lebuh Raya Sultan Abdul Halim, 05400 Alor Setar, Kedah",6.0977812,100.3689349
Senheng Bakri Muar,016-2991398,"No. 82-46-No. 82-49 Jalan Bakri 2 , Taman Kampung Kenanga Tun Dr. Ismail, 84000 Muar, Johor",2.0473299,102.6023376
Senheng Bandar Baru Nilai,016-2991398,"9895 & 9896, Jalan BBN 1/3J ,Putra Point, Fasa 1,Bandar Baru Nilai ,71800 Nilai, Negeri Sembilan",2.8215387,101.7920226
Senheng Bandar Puteri Puchong,016-2991398,"No 34 (GF & 3F) and 36 (GF), Jalan Puteri 2/5 Bandar Puteri, 47100 Puchong, Selangor",3.0232245,101.6160065
Senheng Bandar Utama Cheng M,016-2991398,"No.75 & 75-1, Jalan Inang 4 , Taman Paya Rumput Utama , 76450 Melaka",2.2800377,102.2175848
"Senheng Bandar Utama, Segamat",016-2991398,"No. 12 (Ground Floor) &No. 13 (Ground & First Floor) ,Jalan Susur 2/1 Taman Utama Bandar Baru, 85000 Segamat, Johor",2.5220757,102.8058248
Senheng Bukit Mertajam,016-2991398,"11, 12 & 12A, Precint 1 @ Sunway Wellesley , Jalan Muthu Palaniapan, 14000 Bukit Mertajam, Penang",5.3682625,100.4572047
Senheng Cheras Balakong,016-2991398,"No.13A-G,13A-1,13A-2,15G,15-1 & 15-2 Jalan C 180/1, Dataran C180 Jalan Balakong, Batu 11 43200 Cheras, Selangor",3.0364058,101.7656226
Senheng Dungun,016-2991398,"Lot 11777 & 11778 GM8428 ,Jalan Pak Sabah Mukim, Kuala Dungun ,23000 Dungun, Terengganu",4.7549654,103.4103266
Senheng Farlim,016-2991398,"Fortune Court, 288 B-1-10 & 11 Ground Floor, Jalan Thean Teik, Farlim,11500 Penang.",5.3925594,100.2861459
Senheng Gombak,016-2991398,"Diamond Square No. 15 & 17, Jalan 2/50, Bt. 3 ½, Jalan Gombak, 53000 Setapak, Kuala Lumpur",3.1984553,101.7079351
Senheng Ipoh Station 18,016-2991398,"No. 9 & 9A, 11 & 11A, 13 & 13A, Jalan Pengkalan Utama 1 ,Taman Pengkalan Utama ,31650 Ipoh, Perak",4.542,101.0665248
Senheng Jitra,016-2991398,"34, Pekan Jitra 3, Jitra, 06000 Jitra, Kedah, Malaysia",6.2607715,100.4191013
Senheng Kangar,016-2991398,"No. 1A Persiaran Jubli Emas, 01000 Kangar Perlis",6.4450433,100.2357407
Senheng Kelana Jaya,016-2991398,"F14 & F15 Giant Hypermarket Jalan SS6/12, Kelana Jaya 47301 Petaling Jaya.",3.103485,101.5979753
Senheng Kepong 40-42,016-2991398,"40 & 40-1, 42 & 42-1, Block C, Vista Magna, Batu 7, Jalan Kepong, 52100 Kepong, Kuala Lumpur",3.2127968,101.6447792
Senheng Klang Bukit Tinggi,016-2991398,"No. 43, 45, 47 Jalan Batu Nilam 5, Bandar Bukit Tinggi, 41200 Klang, Selangor, Malaysia",3.0094971,101.434071
Senheng Kompleks PKNS,016-2991398,"G-60F, Tingkat Bawah, Kompleks PKNS Shah Alam, Persiaran Tasik, Seksyen 14, 40000 Shah Alam Selangor",3.0706628,101.5172543
Senheng Kota Bharu,016-2991398,"4064A & B, Jalan Sultan Yahya Petra 15150 Kota Bharu, Kelantan",6.1087114,102.2556566
Senheng Kuala Terengganu,016-2991398,"1049-I, G/Floor, Wisma Ladang, Jalan Sultan Sulaiman, 20000 Kuala Terengganu, Terengganu",5.3305112,103.1452714
Senheng Kuantan Bukit Ubi,016-2991398,"Ground Floor E897, 899, 901 ,Jalan Bukit Ubi, 25000 Kuantan, Pahang.",3.810044,103.321862
Senheng Kulai Jaya,016-2991398,"No.22 , Jalan Kenanga 29/2 ,Indahpura, 80100, Kulai Jaya, Johor.",1.6407733,103.6192792
Senheng Lotus's Tanjung Pinang,016-2991398,"Lot No. F4, F5 & F6, 1st Floor, Kawasan Tebusguna Bandar Tg Pinang, Jalan Tg Tokong, Jalan Seri Tg Pinang, Daerah Timur Laut, 10470 Penang.",5.4465081,100.3048508
Senheng Melaka 16-18,016-2991398,"16-18, Jalan Seri Mangga 1/2 , Taman Seri Mangga ,75250 Melaka",2.2291104,102.2192228
Senheng Meru Bestari,016-2991398,"49,51 & 53, Ground Floor ,Jalan Meru Bestari A2, Meru Medan Bestari, 30200 Ipoh, Perak",4.6701203,101.0757301
Senheng Parit Buntar,016-2991398,"No. 11A, 15, Jalan Keli, Taman Damai, 34200 Parit Buntar, Perak",5.1165167,100.4843542
Senheng Permaisuri,016-2991398,"No. 69 & 71, Dataran Dwitasik, Jalan Dwitasik 1, Bandar Seri Permaisuri, 56000 Cheras, Kuala Lumpur",3.0990719,101.7116941
Senheng Pusat Bandar Baru Bangi,016-2991398,"35 & 36G, Jalan Medan PB4 Seksyen 9, Pusat Bandar Baru Bangi 43650 Selangor",2.9527814,101.7572567
Senheng Silibin Ipoh,016-2991398,"431 & 432, Jalan Silibin Taman Seri Tahan, 30100 Ipoh, Perak",4.611638,101.0561063
Senheng Sri Petaling 95-97-99,016-2991398,"95-97-99, Jln 1/149D ,57000 Sri Petaling, Kuala Lumpur",3.0677905,101.6852282
Senheng Sri Rampai,016-2991398,"61-63, Jalan 46A/26, Rampai Town Centre, 53300 Kuala Lumpur",3.1948404,101.7308031
"Senheng SS2, PJ",016-2991398,"No.23-G, 25-G, 25-1 & 25-2 Jalan SS2/75 47300 Petaling Jaya, Selangor",3.1191697,101.6234196
Senheng Sungai Buloh,016-2991398,"No. 39-G, 39-I, 40-G & 40-I, Jalan Nautika U20/A, Sekyen U20, Pusat Komersil TSB, 40160 Shah Alam, Selangor",3.2088141,101.5718732
Senheng Taman Connaught 171/3,016-2991398,"171 & 173, Jalan Sarjana ,Taman Connaught ,Off Jalan Cheras, 56000 Kuala Lumpur",3.0821965,101.7356045
Senheng Tanah Merah,016-2991398,"Lot 243, Jalan Hospital 17500 Tanah Merah Kelantan",5.810139,102.147944
Senheng USJ Taipan,016-2991398,"21, Jalan USJ 10/1f, Taman Perindustrian UEP, 47620 Subang Jaya, Selangor, Malaysia",3.0483847,101.5830478
SenQ 1 Utama,016-2991398,"LG 102,1 Utama Shopping Centre Lebuh Bandar Utama, Bandar Utama 47800 Petaling Jaya, Selangor",3.1489718,101.6161233
SenQ AEON Bukit Indah,016-2991398,"Lot S01, Second Floor ,AEON Bukit Indah Shopping Center ,No 8, Jalan Indah 15/2, Bukit Indah ,81200 Johor Bahru, Johor",1.4817523,103.6557625
SenQ AEON Kempas,016-2991398,"Lot F25, First Floor,PTD 156356 Jalan Dato Onn Utama , AEON Mall Kempas 81100 Bandar Dato Onn, Johor Bahru, Johor.",1.5639876,103.7344668
SenQ AEON Mall Kota Bharu,016-2991398,"F19 AEON Mall Kota Bharu ,Lembah Sireh, 15050 Kota Bharu,Kelantan",6.1100676,102.2307775
SenQ AEON Seremban 2,016-2991398,"1st Floor, Jusco Seremban 2 ,Shopping Centre, 112 Persiaran S2 B1 , Seremban 2, 70200 Seremban, N.S.",2.7018202,101.9117967
SenQ AEON Tebrau City,016-2991398,"LOT S67,2nd Floor, AEON Mall ,No 1, Jalan Desa Tebrau,Taman Desa Tebrau, 81100 Johor Bahru.",1.558694,103.788602
SenQ Alamanda Shopping Centre,016-2991398,"Lot G29-31, Ground Floor Alamanda Putrajaya Jalan Alamanda, Presint 1 6200 Putrajaya",2.9395291,101.7106171
SenQ Batu Pahat Mall,016-2991398,"Lot No. 1.61, First Floor, 303B ,Jalan Kluang ,83000 Batu Pahat, Johor",1.863554,102.9656839
SenQ Gurney Plaza,016-2991398,"Gurney Plaza, 170-07-08, Plaza Gurney, Persiaran Gurney, 10250 Penang.",5.4380431,100.3100232
SenQ IOI Mall,016-2991398,"Lot F23-23A, IOI Mall Batu 9, Jalan Puchong Bandar Puchong Jaya 47100 Selangor",3.0586477,101.6412382
SenQ Ipoh Parade,016-2991398,"Ipoh Parade, S22F, S23F, S23 & S24, SECOND FLOOR, 105, Jalan Sultan Abdul Jalil, Pusat Perdagangan Greentown, 30450 Ipoh, Negeri Perak",4.597502,101.0911775
SenQ KB Mall,016-2991398,"LOT 3.1 & 3.1A 3rd Floor KBMALL Seksyen, 16, Jalan Hamzah, Bandar Kota Bharu, 15050 Kota Bharu, Kelantan",6.1173093,102.2405497
SenQ Leisure Mall,016-2991398,"L1 34, Level 1, Cheras Leisure Mall, Jalan Manis 6, Taman Segar Cheras, 56100 Kuala Lumpur",3.0909294,101.7431317
SenQ Melawati Mall,016-2991398,"LOT LG – 17 & 18, UP2-01, Melawati Mall, 355, Jalan Bandar Melawati, Pusat Bandar Melawati ,53100 Kuala Lumpur",3.2113794,101.748677
SenQ Nilai,016-2991398,"F20 & F21, 1st Floor, AEON Mall Nilai ,Persiaran Pusat Bandar, Putra Point ,71800 Bandar Baru Nilai",2.8183673,101.7917643
SenQ Paradigm Mall JB,016-2991398,"3F-01, Paradigm Mall Johor Bahru .Jalan Skudai, 81200 Johor Bahru, Johor.",1.5168375,103.685325
SenQ Queensbay Mall,016-2991398,"Queensbay Mall, 2F-07, 2nd Floor, Queensbay Mall 100, Persiaran Bayan Indah, Sungai Nibong, 11900 Bayan Lepas, Penang.",5.3331774,100.3066084
SenQ Sunway Carnival Mall,016-2991398,"S23 Second Floor, Sunway Carnival Mall, 3068, Jalan Todak, Pusat Bandar, 13700 Seberang Jaya, Penang",5.398742,100.397992
SenQ Sutera Mall,016-2991398,"L2-036 Sutera Mall ,No. 1 Jalan Sutera Tanjung 8/4 ,Taman Sutera Utama , 81300 Skudai, Johor Bahru.",1.5171804,103.6716972
SenQ The Mines,016-2991398,"Lot L2-01B (1.01B, First Floor) MINES Shopping Fair Jalan Dulang, MINES Resort City 43300 Seri Kembangan, Selangor",3.0276921,101.7189051
Sentul Recycling Centre (Tzu Chi),03-6256 3800,"254-3 Jalan2/48B, Taman Sentul Jaya, 51000 Kuala Lumpur.",3.1935423,101.6918914
Shan Poornam Green Tech Sdn Bhd,04-5040843,"Plot 204 (PMT 1901) Lorong Perusahaan Maju 6, Kawasan Perindustrian Perai, Fasa 4, 13600 Perai, Pulau Pinang",5.3402235,100.4186997
Shan Poornam Metals (Johor) Sdn Bhd,07-590 9563,"39, Jalan Murni 4, Taman Perindustrian Murni Senai, 51400 Senai Johor Bharu",1.6151275,103.6686548
Shan Poornam Metals Sdn Bhd (Selangor),016-2094266,"Shan Poornam Metals (Selangor) Sdn Bhd, Jalan Wawasan 2B/KU7, Sungai Kapar Indah Industrial Park, Kapar, Selangor, Malaysia",3.1008599,101.3903214
Shan Poornam Metals Sdn. Bhd.,04-5084841,"Plot 34 (No. 1479), Lorong Perusahaan Maju 6 Kawasan Perusahaan Perai, Fasa 4, 13600 Perai, Pulau Pinang",5.3321379,100.4194756
Sisj Usahaniaga Sdn Bhd (KL),03-9222 0841,"No. 42, Jalan Utusan, Jln Enam, Chan Sow Lin, 55200 Kuala Lumpur, Federal Territory of Kuala Lumpur",3.1153502,101.711756
Smart Sustainable Solutions Sdn Bhd,03-76504021,"L1- 31, Cova Square, Jalan Teknologi PJU 5, Kota Damansara, 47810 Petaling Jaya, Selangor",3.1477899,101.5746886
SMC Technology Sdn. Bhd.,07-6862088,"Lot Plo 31-32, Kawasan Perindustrian Pontian, 8200 Pontian Johor.",1.486147,103.4188538
Southern Strength (M) Sdn Bhd,07-2557828 / 016-7331355,"PLO 60, Jalan Nibong, Kawasan Perindustrian Tg. Langsat, 81700 Pasir Gudang Johor.",1.4579687,103.9705706
Sri Damansara Recycling Centre (Tzu Chi),03-6256 3800,"Persatuan Penduduk Bandar Sri Damansara Persiaran Margosa, 52200 Bandar Sri Damansara, Kuala Lumpur",3.1937797,101.610855
Sri Gombak Recycling Centre (Tzu Chi),03-62563800,"Pusat Komuniti Taman Bolton, Taman Sri Gombak, 68100 Batu Caves, Selangor",3.2214977,101.6923343
Sri Melati Recycling Centre (Tzu Chi),03-62563800,"Jalan Sri Melati 16, Taman Sri Melati Selayang Jaya, 68100 Batu Caves, Selangor",3.241812,101.6516826
Sri Muda Recycling Centre (Tzu Chi),03-62563800,"Pusat Kitar Semula, Jalan Yakin 25/11, Taman Sri Muda, Seksyen 25, 40400 Shah Alam, Selangor",3.0312058,101.5305324
Sri Putra Recycling Centre Sungai Buloh (Tzu Chi),03-6256 3800,"14 Jalan Akasia Saujana Akasia, 47000 Sungai Buloh, Selangor",3.2461511,101.5606205
SS3 Recycling Centre (Tzu Chi),03-6256 3800,"Pusat Komuniti MBPJ, Jalan SS3/39, 47300 Petaling Jaya, Selangor",3.0971372,101.6149522
Sun Soon Yik Sdn Bhd,012-303 4889,"No 40 (Pt9283) Lorong Bemban 6, Kawasan Perindustrian Remban 31000 Batu Gajah, Perak",4.457813,101.002764
Sungai Buloh BRP Recycling Centre (Tzu Chi),03-62563800,"45A, Jalan BRP 6/10, Bukit Rahman Putra, 47000 Sungai Buloh, Selangor",3.2270313,101.5586588
Sungai Chua Recycling Centre (Tzu Chi),03-62563800,"332, Jalan 10, Kampung Sungai Chua, 43000 Kajang, Selangor",2.9932122,101.7822668
Sungai Long Sek 7 Recycling Centre (Tzu Chi),03-6256 3800,"SL7/17, Bandar Sungai Long, 43000 Kajang, Selangor",3.0503041,101.7988887
T-Pot Electrical & Electronics Sdn Bhd,03-5880 2916 / 2918,"No. 2, Jalan Termostat 34/7 Bukit Kemuning Light Industrial Park, Seksyen 34, 40470 Shah Alam, Selangor",3.0066191,101.4990127
Taiko Metals Recycle Sdn Bhd,04-489 1393,"Lot 73 Jalan Perusahaan 2b, Kawasan Perusahaan Kulim, 09000 Kulim, Kedah",5.4141816,100.5575716
Taman Berkeley Recycling Centre (Tzu Chi),03-33820066 / 03-33820660,"112, Jalan Undan Putih, Taman Berkeley, 41150 Klang, Selangor",3.0606229,101.4660887
Taman Chi Liung Recycling Centre (Tzu Chi),03-33820066 / 03-33820660,"26 Lorong Seleguri 3, Taman Chi Liung, 41200 Klang, Selangor",3.0240524,101.4276505
Taman Desa Recycling Centre (Tzu Chi),03-62563800,"Lot PT1700, Jalan 3/109F, Taman Danau Desa, 58100 Kuala Lumpur (opposite Shell Petrol Station)",3.1009384,101.6870158
Taman Ehsan Recycling Centre (Tzu Chi),03-6256 3800,"Dewan Masyarakat India Taman Ehsan, Jalan 29 Taman Ehsan, 52100 Kuala Lumpur",3.220527,101.6270261
Taman Kinrara Recycling Centre (Tzu Chi),03-62563800,"Pusat Kitar Semula Taman Kinrara Seksyen 3, Jalan TK 3/17, Taman Kinrara, 47190 Puchong, Selangor",3.0615622,101.6371996
Taman Mastiara Recycling Centre (Tzu Chi),03-62563800,"No. 9 Jalan 5/18D, Taman Mastiara, 51200 Kuala Lumpur",3.2151837,101.6736265
Taman Megah Recycling Centre (Tzu Chi),03-62563800,"Jalan 37C, Taman Megah Cheras, 43200 Batu 10 Kajang, Selangor",3.054464,101.768193
Taman Meru Recycling Centre (Tzu Chi),03-3382 0066 / 0660,"Lot 8267 Jalan Pulau Pinang 2 Off Jalan Meru, 41050 Klang, Selangor.",3.0596242,101.4514061
"Taman Mewah Jaya 2, Recycling Centre (Tzu Chi)",03-3382 0066 / 0660,"37A Lorong Samarinda 29B, Taman Mewah Jaya 2, 41200 Klang, Selangor",3.0157987,101.4786452
Taman Sri Endah KL Recycling Centre (Tzu Chi),03-6256 3800,"Jalan 4/149B, Taman Sri Endah, 57000 Sri Petaling, Kuala Lumpur",3.0632224,101.6889299
Taman Sri Petaling Recycling Centre (Tzu Chi),03-6256 3800,"Jalan Sri Petaling 1 , Taman Sri Petaling , 57000 Kuala Lumpur",3.0732203,101.6945853
Taman Sungai Besi Indah KL (Tzu Chi),03-62563800,"Pusat Komuniti Rakyat, Jalan Sungai Besi Indah 2, Taman Sungai Besi, 43300 Selangor",3.0297073,101.7281691
Taman University Recycling Centre (Tzu Chi),03-62563800,"Pusat Kitar Semula, Jalan Indah 2/2, Taman Universiti Indah, 43300 Seri Kembangan, Selangor",3.0052359,101.6938455
Tan Boon Ming 3 Damansara,03-77101212,"No 3, Jln SS20/27, Lot L1-3A, 1st floor, Damansara Utama, 47400 Petaling Jaya",3.1304749,101.6269411
Tan Boon Ming Central i-City Shopping Centre,03-55245918,"LG-03, Level Lower Ground Sentral i-City, Plot 1, Jln Multimedia, Seksyen 7, 40000 Shah Alam",3.0650157,101.4828033
Tan Boon Ming Great Eastern Mall,03-27717689,"Lot 4, Level 3, No. 303, Jalan Ampang, Desa Pahlawan, 50450 Kuala Lumpur",3.1600725,101.7369013
Tan Boon Ming Sdn Bhd,03-79832020,"PS-4,5,6,7 & 8, Taman Evergreen ,Batu 4, Jalan Klang Lama ,58100 Kuala Lumpur",3.0972834,101.6752416
Tan Boon Ming Sdn Bhd,03-51214122,"No. 37 & 39, Jalan Mewah 25/63, Taman Sri Muda, 40400 Shah Alam, Selangor",3.0310635,101.535521
Tan Boon Ming Sdn Bhd,03-56125959,"Lot 33, Jalan Delima, Subang HiTech Industrial Park, 40000 Shah Alam, Selangor",3.069586,101.5685359
Tan Boon Ming Sdn Bhd Bangsar Village,03-22874818,"Unit No. LG-6, Lower Ground Floor, Jalan Telawi Satu, Bangsar Baru, 59100 Kuala Lumpur",3.1299577,101.67167
Tan Boon Ming Sdn Bhd Cheras Sentral,03-91074755 / 03-91004288 / 010-2020985,"700-2F-10B to10L, 2nd Floor ,Cheras Sentral Shopping Mall ,KM10, 56000 Cheras, Kuala Lumpur",3.0784689,101.7449415
Tan Boon Ming Sdn Bhd Dpulze Shopping Centre,03-83227770,"LG-23, Dpulze Shopping Centre, Lingkaran Cyber Point Timur, Cyber12, 63000 Cyberjaya, Selangor",2.9220548,101.650968
Tan Boon Ming Setapak Central,03-41498090,"No. F-53-55, 1st Floor, 67, Jalan Taman Ibu Kota, Taman Danau Kota, 53300 Setapak, Kuala Lumpur",3.2045747,101.7205297
Tan Boon Ming Tropicana Gardens Mall,03-76607088,"Lot 1F-21, First Floor, No. 2A, Persiaran Surian, Tropicana Indah 47810 Petaling Jaya, Selangor",3.1487845,101.5947374
Tanjong Sepat Recycling Centre (Tzu Chi),03-3382 0066 / 0660,"PT 87 Jalan Perusahaan, 42800 Tanjong Sepat, Selangor.",2.6565046,101.5648051
Teratai Gateway Enterprise Sdn. Bhd,04-5512 877,"No.7, Lorong Industri Alma, 14000 Bukit Mertajam, Pulau Pinang",5.3277627,100.4791986
TES-AMM (Malaysia) Sdn Bhd,07-2524418,"PLO 418, Jalan Emas 2, Kawasan Perindustrian Pasir Gudang, 81700 Pasir Gudang, Johor",1.4560897,103.892012
TES-AMM (Malaysia) Sdn Bhd (Pulau Pinang),04-399 1896,"PMT 3076, Jalan Jelawat, Taman Prindustrian Seberang Jaya, 13700 Perai, Pulau Pinang",5.4051568,100.3936936
Thitec Technology (M) Sdn Bhd,04-4591 425,"No. 9, Jalan Industri Desa Aman 1/2, Kawasan Industri Ringan Desa Aman, Sungai Lalang, 08100 Bedong, Kedah",5.7041564,100.5219829
TM Recycle IT Sdn Bhd,03-31222383 / 019-4775636,"166, Jalan Sungai Pinang 5/6, Taman Perindustrian Pulau Indah, 42920 Pelabuhan Klang, Selangor",2.9629498,101.3322884
Town Park Recycling Centre (Tzu Chi),03-6256 3800,"Town Park, Jalan Pandan Indah 4/3 Pandan Indah, 55100 Kuala Lumpur",3.1318462,101.744176
Trash4cash (M) Sdn Bhd,019-5129020,"Lot 1821, Batu 8 Mukim Tajar, Jalan Dato Kumbar, 06500 Alor Setar, Kedah",6.1201399,100.3921592
Trash4cash Selangor & KL - Bumi Waste (M) Sdn Bhd,019-5149020,"No. 5, Jalan 6, Hi-Tech 5, Industrial Park Sungai Lalang",2.9903935,101.8670898
Triple-C Recycle Sdn Bhd,08-2617179,"SL6, Lot 1625, Batu 10 Light Industrial Park, Lorong Jalan Kuap, 93250 Kuching Sarawak",1.4189282,110.346885
Ulu Yam Bahru Recycling Centre (Tzu Chi),03-6256 3800,"Lot 17064-B Jalan Tua, Kampung Gurney Hulu Yam Bharu, 43300 Batu Caves, Selangor.",3.236516,101.6816512
Unbox Asia Sdn Bhd,011-10870001,"B1-03-02, Sunway Geo Avenue, Block B1, Jalan Lagoon Selatan, Bandar Sunway, 47500 Petaling Jaya, Selangor",3.0652398,101.608673
USJ 8 Recycling Centre (Tzu Chi),03-6256 3800,"D3-00-10 Subang Perdana, Goodyear Court 4 Subang Perdana, Jalan Kewajipan UEP Subang Jaya, 47600 Subang Jaya.",3.0468131,101.5898976
Victory Recovery Resources Sdn Bhd,06-3345336,"No 14 & 16, Jalan Pk 11, Krubong Industrial Park 75250 Melaka.",2.2937653,102.2432136
Wangsa Maju Recycling Centre (Tzu Chi),03-6256 3800,"49 Jalan 35/27B, Taman Desa Setapak Wangsa Maju, 53300 Kuala Lumpur.",3.2081107,101.7329694
Warmtech Sdn Bhd,04-5075750,"Lot 69 Jalan PKNK 1/8, Kawasan Perindustrian Sungai Petani, 08000 Sungai Petani, Kedah.",5.6530785,100.5350715
Wilgreen Recovery Sdn Bhd,07 255 5322,"Plo 569, Jalan Keluli, Kaw. Perindustrian Pasir Gudang, 81700 Johor",1.4718352,103.9274442
WNN Technology Centre Sdn Bhd,03-3134 1179,"Lot 14846, Jalan Udang Galah, Kampung Telok Gong, 42000 Pelabuhan Klang, Selangor",2.9535828,101.3908383
